OBJECT_NAME,OBJECT_ID,EPOCH,MEAN_MOTION,ECCENTRICITY,INCLINATION,RA_OF_ASC_NODE,ARG_OF_PERICENTER,MEAN_ANOMALY,EPHEMERIS_TYPE,CLASSIFICATION_TYPE,NORAD_CAT_ID,ELEMENT_SET_NO,REV_AT_EPOCH,BSTAR,MEAN_MOTION_DOT,MEAN_MOTION_DDOT
LEMUR-1,2014-033AL,2026-07-05T05:08:06.927648,14.85316181,.00486093,97.7902,335.6207,20.7024,339.6146,0,U,40044,999,64814,.32802666E-3,.2824E-4,0
LEMUR-2-GREENBERG,2017-042N,2026-07-04T11:10:53.955264,15.31879629,.00072799,97.3827,6.0171,305.7985,54.2579,0,U,42837,999,49103,.8094247E-3,.24909E-3,0
LEMUR-2-ANDIS,2017-042P,2026-07-04T06:13:22.012320,15.35550599,.00072231,97.3685,6.0558,304.5319,55.5242,0,U,42838,999,49107,.97068298E-3,.33593E-3,0
LEMUR-2-MONSON,2017-042Q,2026-07-04T23:17:38.557824,15.28555048,.00051857,97.4091,6.4648,292.4391,67.6299,0,U,42839,999,49088,.96004031E-3,.26672E-3,0
LEMUR-2-FURIAUS,2017-042R,2026-07-04T17:35:40.348032,15.30867625,.00068683,97.3776,4.1987,10.1304,350.0075,0,U,42840,999,49089,.12100533E-2,.36173E-3,0
LEMUR-2-PETERG,2017-042S,2026-07-04T18:36:40.451616,15.34712984,.00028191,97.3997,10.8423,271.4936,88.5984,0,U,42841,999,49113,.14665851E-2,.4953E-3,0
LEMUR-2-DEMBITZ,2017-042T,2026-07-04T18:03:57.020256,15.30862613,.0005378,97.3827,7.2552,321.4252,38.6604,0,U,42842,999,49103,.11286069E-2,.33708E-3,0
LEMUR-2-ZACHARY,2017-042W,2026-07-04T19:16:14.209536,15.51927144,.00023762,97.3587,17.8321,301.9276,58.1745,0,U,42845,999,49193,.16412738E-2,.99482E-3,0
LEMUR-2-AMANDA-SVANTE,2021-034B,2026-07-03T17:19:57.056160,15.35322296,.00038687,97.5753,263.4542,168.8216,191.3113,0,U,48269,999,28359,.10611829E-2,.36457E-3,0
LEMUR-2-SPECIAL-K,2021-034F,2026-07-04T18:32:08.827296,15.70732789,.00056146,97.5633,273.9758,222.1957,137.8874,0,U,48273,999,28444,.29527663E-2,.38167E-2,0
LEMUR-2-EMBRIONOVIS,2023-084AQ,2026-07-04T15:22:55.415424,15.38015741,.00076417,97.6316,330.5169,248.0379,112.0053,0,U,56970,999,17036,.69115305E-3,.25842E-3,0
LEMUR-2-DEVERILL-M-T,2023-100F,2026-07-05T02:25:06.368160,15.40706658,.00049185,99.4455,230.0436,341.2411,18.8647,0,U,57391,999,16400,.11163363E-2,.45721E-3,0
LEMUR-2-BASS,2023-174D,2026-07-05T04:04:07.817088,15.43739318,.00080169,97.3843,271.1401,108.2263,251.9858,0,U,58259,999,14813,.65052939E-3,.29406E-3,0
LEMUR-2-JK0903EM1407,2023-174CJ,2026-07-05T04:41:17.965248,15.52668170,.00044416,97.3920,277.1846,64.6529,295.5184,0,U,58336,999,14852,.67161464E-3,.41451E-3,0
LEMUR-2-MJR092620,2023-174CN,2026-07-05T03:52:56.461440,15.45583381,.00062151,97.3972,276.5298,63.1184,297.0700,0,U,58340,999,14842,.65450399E-3,.3149E-3,0
LEMUR-2-NIMBUS2000,2024-022A,2026-07-05T01:45:48.102624,15.40789502,.00096793,97.4091,36.3054,61.4495,298.7724,0,U,58899,999,13502,.90805458E-3,.37288E-3,0
LEMUR-2-VALHALLA,2024-022B,2026-07-05T01:47:16.107072,15.40253389,.00101763,97.4088,36.2858,57.3327,302.8899,0,U,58900,999,13502,.66371769E-3,.26723E-3,0
LEMUR-2-CAEL,2024-022E,2026-07-05T01:39:21.018528,15.41599611,.00081705,97.4072,37.2478,43.5743,316.6148,0,U,58903,999,13509,.71123016E-3,.29939E-3,0
LEMUR-2-JOHNNYTRUONG,2024-043BA,2026-07-04T09:25:47.735040,15.61818849,.00045551,97.5391,338.1783,124.7433,235.4254,0,U,59146,999,13072,.65451893E-3,.56885E-3,0
LEMUR-2-TOMATOKECHUP,2024-149D,2026-07-05T05:10:22.784736,15.36432698,.00028426,97.3792,268.3123,140.6819,219.4632,0,U,60471,999,10493,.52480556E-3,.18596E-3,0
LEMUR-2-STELLA,2024-149BT,2026-07-05T00:23:44.640096,15.12216531,.00013045,97.6731,268.5536,102.2938,257.8438,0,U,60533,999,10319,.12267146E-2,.21169E-3,0
LEMUR-2-MARHISYAM,2024-149BW,2026-07-04T17:43:39.771264,15.11619799,.00030549,97.6875,268.7409,86.6655,273.4924,0,U,60536,999,10313,.10828616E-2,.18366E-3,0
LEMUR-2-AHMED-ASRAR,2024-149DN,2026-07-05T05:14:44.556000,15.13151703,.00003391,97.6999,271.3871,289.1354,70.9839,0,U,60576,999,10329,.12012426E-2,.21275E-3,0
LEMUR-2-LLOYD,2024-149DP,2026-07-04T17:49:17.249664,15.09601183,.00052208,97.6742,266.8843,96.6367,263.5456,0,U,60577,999,10304,.11641617E-2,.18685E-3,0
LEMUR-2-SQUIRRELCOMM,2024-149DQ,2026-07-05T04:19:20.730720,15.07368905,.00050016,97.6700,267.0364,3.1897,356.9362,0,U,60578,999,10311,.75981173E-3,.11441E-3,0
LEMUR-2-SIERRINI,2024-149DR,2026-07-05T00:43:55.276896,15.11356042,.00065328,97.6839,268.7054,116.5122,243.6778,0,U,60579,999,10315,.12453791E-2,.20994E-3,0
LEMUR-2-WILSON,2025-009CP,2026-07-05T03:56:06.474048,14.95249439,.0002728,97.7019,264.3134,10.9228,349.2051,0,U,62694,999,8004,.38521239E-3,.4183E-4,0
LEMUR-2-STAR-FOX,2025-009CR,2026-07-05T04:56:25.949760,15.02759310,.00036595,97.6931,267.6866,74.4899,285.6730,0,U,62696,999,8026,.10013711E-2,.13346E-3,0
LEMUR-2-ARIANNA,2025-009CU,2026-07-05T03:18:20.418048,15.02755968,.00040104,97.6871,267.3793,79.3835,280.7841,0,U,62699,999,8025,.10336363E-2,.13778E-3,0
